NORAD_CAT_ID,OBJECT_NAME,OBJECT_TYPE,EPOCH,MEAN_MOTION,ECCENTRICITY,INCLINATION,RA_OF_ASC_NODE,ARG_OF_PERICENTER,MEAN_ANOMALY,BSTAR,MEAN_MOTION_DOT,MEAN_MOTION_DDOT,TLE_LINE0,TLE_LINE1,TLE_LINE2,SEMIMAJOR_AXIS,PERIOD,APOGEE,PERIGEE,DECAYED
55425.0,STARLINK-5615,PAYLOAD,2024-03-30 15:32:34,14.98326861,0.0003067,69.9997,72.2401,269.9214,90.1594,-0.00021734,-2.685e-05,0.0,0 STARLINK-5615,1 55425U 23014AL  24090.64762241 -.00002685  00000-0 -21734-3 0  9991,2 55425  69.9997  72.2401 0003067 269.9214  90.1594 14.98326861 65352,6950.203,96.107,574.199,569.936,0.0
55425.0,STARLINK-5615,PAYLOAD,2024-03-31 09:10:02,14.98354919,0.0003506,69.9996,70.3889,272.8187,87.2571,-0.00064381,-7.772e-05,0.0,0 STARLINK-5615,1 55425U 23014AL  24091.38197407 -.00007772  00000-0 -64381-3 0  9996,2 55425  69.9996  70.3889 0003506 272.8187  87.2571 14.98354919 64525,6950.116,96.105,574.418,569.544,0.0
55425.0,STARLINK-5615,PAYLOAD,2024-03-31 15:34:35,14.98333092,0.0003316,69.9991,69.7158,267.3754,92.7026,-0.0001985,-2.461e-05,0.0,0 STARLINK-5615,1 55425U 23014AL  24091.64901803 -.00002461  00000-0 -19850-3 0  9999,2 55425  69.9991  69.7158 0003316 267.3754  92.7026 14.98333092 64568,6950.183,96.107,574.353,569.744,0.0
55425.0,STARLINK-5615,PAYLOAD,2024-03-31 21:59:07,14.98318539,0.0003086,69.9995,69.0421,263.191,96.8898,0.00010193,1.123e-05,0.0,0 STARLINK-5615,1 55425U 23014AL  24091.91606048  .00001123  00000-0  10193-3 0  9995,2 55425  69.9995  69.0421 0003086 263.1910  96.8898 14.98318539 65540,6950.228,96.108,574.238,569.948,0.0
55425.0,STARLINK-5615,PAYLOAD,2024-04-01 07:35:55,14.98322667,0.0003055,69.9995,68.0323,261.7391,98.3421,0.00013886,1.564e-05,0.0,0 STARLINK-5615,1 55425U 23014AL  24092.31661940  .00001564  00000-0  13886-3 0  9993,2 55425  69.9995  68.0323 0003055 261.7391  98.3421 14.98322667 65606,6950.216,96.107,574.204,569.957,0.0
55425.0,STARLINK-5615,PAYLOAD,2024-04-01 15:36:36,14.98321347,0.0003146,69.9994,67.1902,267.1073,92.9726,0.00015351,1.739e-05,0.0,0 STARLINK-5615,1 55425U 23014AL  24092.65042159  .00001739  00000-0  15351-3 0  9998,2 55425  69.9994  67.1902 0003146 267.1073  92.9726 14.98321347 64719,6950.22,96.108,574.271,569.898,0.0
55425.0,STARLINK-5615,PAYLOAD,2024-04-02 07:37:57,14.98325119,0.000307,69.9996,65.5073,266.4136,93.6672,0.00010303,1.136e-05,0.0,0 STARLINK-5615,1 55425U 23014AL  24093.31802340  .00001136  00000-0  10303-3 0  9991,2 55425  69.9996  65.5073 0003070 266.4136  93.6672 14.98325119 65754,6950.208,96.107,574.207,569.939,0.0
55425.0,STARLINK-5615,PAYLOAD,2024-04-02 15:38:37,14.983333,0.0003362,69.9995,64.6653,261.8722,98.2056,-9.4556e-05,-1.221e-05,0.0,0 STARLINK-5615,1 55425U 23014AL  24093.65182261 -.00001221  00000-0 -94556-4 0  9991,2 55425  69.9995  64.6653 0003362 261.8722  98.2056 14.98333300 64860,6950.183,96.107,574.384,569.711,0.0
55425.0,STARLINK-5615,PAYLOAD,2024-04-03 07:39:58,14.98328524,0.0003073,69.9996,62.982,267.4903,92.5905,-7.8826e-06,-1.87e-06,0.0,0 STARLINK-5615,1 55425U 23014AL  24094.31942602 -.00000187  00000-0 -78826-5 0  9991,2 55425  69.9996  62.9820 0003073 267.4903  92.5905 14.98328524 65908,6950.197,96.107,574.198,569.927,0.0
55425.0,STARLINK-5615,PAYLOAD,2024-04-03 20:29:02,14.98327374,0.0003058,69.9997,61.6354,267.339,92.7419,3.1495e-07,-8.9e-07,0.0,0 STARLINK-5615,1 55425U 23014AL  24094.85350672 -.00000089  00000-0  31495-6 0  9992,2 55425  69.9997  61.6354 0003058 267.3390  92.7419 14.98327374 65048,6950.201,96.107,574.191,569.941,0.0
55425.0,STARLINK-5615,PAYLOAD,2024-04-03 22:05:10,14.98328267,0.0003063,69.9997,61.4671,267.4131,92.6677,9.6745e-06,2.2e-07,0.0,0 STARLINK-5615,1 55425U 23014AL  24094.92026590  .00000022  00000-0  96745-5 0  9993,2 55425  69.9997  61.4671 0003063 267.4131  92.6677 14.98328267 65999,6950.198,96.107,574.192,569.934,0.0
55425.0,STARLINK-5615,PAYLOAD,2024-04-04 07:41:59,14.9833142,0.0003024,70.0,60.4576,268.084,91.9973,2.5651e-05,2.13e-06,0.0,0 STARLINK-5615,1 55425U 23014AL  24095.32082352  .00000213  00000-0  25651-4 0  9995,2 55425  70.0000  60.4576 0003024 268.0840  91.9973 14.98331420 66055,6950.188,96.107,574.155,569.952,0.0
55425.0,STARLINK-5615,PAYLOAD,2024-04-04 22:07:11,14.9833532,0.0002695,70.0,58.9427,271.07,89.015,-3.4225e-05,-5.01e-06,0.0,0 STARLINK-5615,1 55425U 23014AL  24095.92166317 -.00000501  00000-0 -34225-4 0  9994,2 55425  70.0000  58.9427 0002695 271.0700  89.0150 14.98335320 66142,6950.176,96.107,573.915,570.168,0.0
55425.0,STARLINK-5615,PAYLOAD,2024-04-05 02:55:35,14.98330724,0.0003017,70.0001,58.4377,269.1303,90.9511,5.0289e-05,5.07e-06,0.0,0 STARLINK-5615,1 55425U 23014AL  24096.12194251  .00000507  00000-0  50289-4 0  9997,2 55425  70.0001  58.4377 0003017 269.1303  90.9511 14.98330724 65232,6950.191,96.107,574.153,569.959,0.0
55425.0,STARLINK-5615,PAYLOAD,2024-04-05 14:08:32,14.98331018,0.0002973,70.0003,57.2595,269.5214,90.5605,1.0493e-05,3.2e-07,0.0,0 STARLINK-5615,1 55425U 23014AL  24096.58926222  .00000032  00000-0  10493-4 0  9994,2 55425  70.0003  57.2595 0002973 269.5214  90.5605 14.98331018 66247,6950.19,96.107,574.121,569.988,0.0
55425.0,STARLINK-5615,PAYLOAD,2024-04-05 22:09:12,14.98329266,0.0002939,70.0005,56.4181,269.4968,90.5854,-2.6537e-05,-4.1e-06,0.0,0 STARLINK-5615,1 55425U 23014AL  24096.92306423 -.00000410  00000-0 -26537-4 0  9995,2 55425  70.0005  56.4181 0002939 269.4968  90.5854 14.98329266 66291,6950.195,96.107,574.103,570.017,0.0
55425.0,STARLINK-5615,PAYLOAD,2024-04-06 02:57:36,14.98329416,0.0002939,70.0005,55.9131,269.5466,90.5356,-2.4003e-05,-3.79e-06,0.0,0 STARLINK-5615,1 55425U 23014AL  24097.12334402 -.00000379  00000-0 -24003-4 0  9996,2 55425  70.0005  55.9131 0002939 269.5466  90.5356 14.98329416 65387,6950.195,96.107,574.102,570.017,0.0
55425.0,STARLINK-5615,PAYLOAD,2024-04-06 14:10:32,14.98350496,0.0002582,70.0015,54.7358,271.3594,88.7269,-0.00038965,-4.741e-05,0.0,0 STARLINK-5615,1 55425U 23014AL  24097.59065875 -.00004741  00000-0 -38965-3 0  9990,2 55425  70.0015  54.7358 0002582 271.3594  88.7269 14.98350496 66399,6950.13,96.106,573.789,570.2,0.0
55425.0,STARLINK-5615,PAYLOAD,2024-04-06 22:11:13,14.98330304,0.0002803,70.0015,53.8944,265.5013,94.5826,-2.8713e-05,-4.36e-06,0.0,0 STARLINK-5615,1 55425U 23014AL  24097.92446240 -.00000436  00000-0 -28713-4 0  9994,2 55425  70.0015  53.8944 0002803 265.5013  94.5826 14.98330304 66443,6950.192,96.107,574.005,570.109,0.0
55425.0,STARLINK-5615,PAYLOAD,2024-04-07 07:48:01,14.98331627,0.0002819,70.0009,52.8842,265.7429,94.3408,-5.0661e-05,-6.97e-06,0.0,0 STARLINK-5615,1 55425U 23014AL  24098.32502188 -.00000697  00000-0 -50661-4 0  9999,2 55425  70.0009  52.8842 0002819 265.7429  94.3408 14.98331627 66502,6950.188,96.107,574.012,570.094,0.0
55425.0,STARLINK-5615,PAYLOAD,2024-04-07 22:13:14,14.98327305,0.0002849,70.0007,51.3693,270.4029,89.6804,-1.5611e-05,-2.79e-06,0.0,0 STARLINK-5615,1 55425U 23014AL  24098.92586403 -.00000279  00000-0 -15611-4 0  9999,2 55425  70.0007  51.3693 0002849 270.4029  89.6804 14.98327305 66594,6950.201,96.107,574.046,570.086,0.0
55425.0,STARLINK-5615,PAYLOAD,2024-04-08 04:37:46,14.9832885,0.0002879,70.0007,50.696,270.5926,89.4903,-2.1486e-05,-3.49e-06,0.0,0 STARLINK-5615,1 55425U 23014AL  24099.19290353 -.00000349  00000-0 -21486-4 0  9990,2 55425  70.0007  50.6960 0002879 270.5926  89.4903 14.98328850 65697,6950.196,96.107,574.062,570.06,0.0
55425.0,STARLINK-5615,PAYLOAD,2024-04-08 14:14:35,14.98329385,0.0002888,70.0008,49.686,270.8724,89.2104,-8.3543e-06,-1.93e-06,0.0,0 STARLINK-5615,1 55425U 23014AL  24099.59346298 -.00000193  00000-0 -83543-5 0  9994,2 55425  70.0008  49.6860 0002888 270.8724  89.2104 14.98329385 66690,6950.195,96.107,574.067,570.053,0.0
55425.0,STARLINK-5615,PAYLOAD,2024-04-08 23:51:23,14.98329562,0.0002935,70.0007,48.6759,270.8501,89.2322,3.9569e-05,3.79e-06,0.0,0 STARLINK-5615,1 55425U 23014AL  24099.99402137  .00000379  00000-0  39569-4 0  9995,2 55425  70.0007  48.6759 0002935 270.8501  89.2322 14.98329562 66757,6950.194,96.107,574.099,570.019,0.0
55425.0,STARLINK-5615,PAYLOAD,2024-04-09 04:39:47,14.98332113,0.0002921,70.0006,48.17,268.6488,91.4336,4.8219e-05,4.82e-06,0.0,0 STARLINK-5615,1 55425U 23014AL  24100.19429925  .00000482  00000-0  48219-4 0  9991,2 55425  70.0006  48.1700 0002921 268.6488  91.4336 14.98332113 65846,6950.186,96.107,574.082,570.021,0.0
55425.0,STARLINK-5615,PAYLOAD,2024-04-09 14:16:36,14.98329819,0.0002941,70.0008,47.1596,269.1857,90.8965,-6.3505e-07,-1.01e-06,0.0,0 STARLINK-5615,1 55425U 23014AL  24100.59486143 -.00000101  00000-0 -63505-6 0  9997,2 55425  70.0008  47.1596 0002941 269.1857  90.8965 14.98329819 66849,6950.193,96.107,574.103,570.014,0.0
55425.0,STARLINK-5615,PAYLOAD,2024-04-10 04:41:48,14.98328422,0.000298,70.0006,45.6453,270.48,89.6017,1.5572e-05,9.3e-07,0.0,0 STARLINK-5615,1 55425U 23014AL  24101.19570241  .00000093  00000-0  15572-4 0  9994,2 55425  70.0006  45.6453 0002980 270.4800  89.6017 14.98328422 65996,6950.198,96.107,574.134,569.992,0.0
55425.0,STARLINK-5615,PAYLOAD,2024-04-10 06:17:56,14.98335007,0.0002884,70.0008,45.477,268.666,91.4168,-7.672e-05,-1.008e-05,0.0,0 STARLINK-5615,1 55425U 23014AL  24101.26246034 -.00001008  00000-0 -76720-4 0  9993,2 55425  70.0008  45.4770 0002884 268.6660  91.4168 14.98335007 66945,6950.177,96.107,574.047,570.038,0.0
55425.0,STARLINK-5615,PAYLOAD,2024-04-10 22:19:17,14.98327559,0.0002891,70.0013,43.7945,269.8168,90.266,-2.9566e-05,-4.46e-06,0.0,0 STARLINK-5615,1 55425U 23014AL  24101.93006450 -.00000446  00000-0 -29566-4 0  9994,2 55425  70.0013  43.7945 0002891 269.8168  90.2660 14.98327559 67049,6950.2,96.107,574.075,570.056,0.0
55425.0,STARLINK-5615,PAYLOAD,2024-04-11 04:43:50,14.98319896,0.0002765,70.0011,43.1209,263.9798,96.1046,3.2418e-05,2.94e-06,0.0,0 STARLINK-5615,1 55425U 23014AL  24102.19710820  .00000294  00000-0  32418-4 0  9995,2 55425  70.0011  43.1209 0002765 263.9798  96.1046 14.98319896 66146,6950.224,96.108,574.011,570.167,0.0
